OPS 3165 (DSP 5)        
1 08482U 75118A   26063.15782770  .00000048  00000+0  00000+0 0  9998
2 08482   2.5621 260.6316 0034864  25.2122 297.4521  1.00462517 25398
RADUGA 1                
1 08513U 75123A   26063.10140743 -.00000138  00000+0  00000+0 0  9993
2 08513   3.0737 268.2370 0004357 300.9741  68.3846  1.00248418193769
TITAN 3C TRANSTAGE R/B  
1 08516U 75118C   26062.14038499  .00000064  00000+0  00000+0 0  9994
2 08516   2.5420 260.9529 0010991 212.6345 146.7464  1.00551208 24719
CTS                     
1 08585U 76004A   26063.18586576 -.00000148  00000+0  00000+0 0  9998
2 08585   4.2008 273.5315 0011554 291.6220 287.1264  1.00202205121248
INTELSAT 4A-F2          
1 08620U 76010A   26062.80772856  .00000093  00000+0  00000+0 0  9999
2 08620   8.1242 304.6124 0006803 315.3422 229.5085  0.99686673619564
LES-8                   
1 08746U 76023A   26062.92262977 -.00000123  00000+0  00000+0 0  9998
2 08746  22.2036  38.3703 0032081 156.8745 195.2085  1.00269848128623
LES-9                   
1 08747U 76023B   26062.42348121 -.00000125  00000+0  00000+0 0  9992
2 08747  22.1642  38.3886 0023912 180.8526 350.9954  1.00276001128618
COMSTAR 1               
1 08838U 76042A   26063.00929685 -.00000258  00000+0  00000+0 0  9996
2 08838   8.1922 305.3612 0005832 356.2087 198.2127  0.99829745119521
TITAN 3C TRANSTAGE R/B  
1 08918U 76059C   26062.24072419  .00000112  00000+0  00000+0 0  9990
2 08918   3.0020 263.6884 0007968 274.4259  85.0297  1.00540972 24389
PALAPA 1                
1 09009U 76066A   26062.69558704 -.00000380  00000+0  00000+0 0  9993
2 09009   8.1132 305.7360 0002648 268.4511 318.1783  1.00092015126880
COMSTAR 2               
1 09047U 76073A   26063.10218743 -.00000120  00000+0  00000+0 0  9998
2 09047   8.1408 305.8419 0001752   7.0969 328.8286  0.99965464 46154
RADUGA 2                
1 09416U 76092A   26063.09820074  .00000004  00000+0  00000+0 0  9993
2 09416   3.7484 271.1948 0029830  37.0158 312.6531  1.00266621128282
KIKU-2 (ETS-II)         
1 09852U 77014A   26062.76699502  .00000059  00000+0  00000+0 0  9995
2 09852   5.5384 284.3156 0001491  45.9664 298.5435  1.00017901126160
TITAN 3C TRANSTAGE R/B  
1 09855U 77007C   26062.68471664  .00000082  00000+0  00000+0 0  9994
2 09855   3.6655 269.6971 0017372  44.2925 315.4976  1.00303171 24300
PALAPA 2                
1 09862U 77018A   26062.66392170 -.00000261  00000+0  00000+0 0  9996
2 09862   8.8689 310.9842 0002984  87.3567  99.1186  1.00029465142055
RADUGA 3                
1 10159U 77071A   26063.09369405  .00000130  00000+0  00000+0 0  9993
2 10159   4.3872 274.9309 0008670 305.4757  15.7149  1.00312664175988
SIRIO                   
1 10294U 77080A   26063.10071409 -.00000116  00000+0  00000+0 0  9994
2 10294   7.4581 299.9429 0005453 149.2891 184.6132  1.00271169116862
