[{"OBJECT_NAME":"OPS 3165 (DSP 5)","OBJECT_ID":"1975-118A","EPOCH":"2026-03-04T03:47:16.313280","MEAN_MOTION":1.00462517,"ECCENTRICITY":0.0034864,"INCLINATION":2.5621,"RA_OF_ASC_NODE":260.6316,"ARG_OF_PERICENTER":25.2122,"MEAN_ANOMALY":297.4521,"EPHEMERIS_TYPE":0,"CLASSIFICATION_TYPE":"U","NORAD_CAT_ID":8482,"ELEMENT_SET_NO":999,"REV_AT_EPOCH":2539,"BSTAR":0,"MEAN_MOTION_DOT":4.8e-7,"MEAN_MOTION_DDOT":0},{"OBJECT_NAME":"RADUGA 1","OBJECT_ID":"1975-123A","EPOCH":"2026-03-04T02:26:01.601952","MEAN_MOTION":1.00248418,"ECCENTRICITY":0.0004357,"INCLINATION":3.0737,"RA_OF_ASC_NODE":268.237,"ARG_OF_PERICENTER":300.9741,"MEAN_ANOMALY":68.3846,"EPHEMERIS_TYPE":0,"CLASSIFICATION_TYPE":"U","NORAD_CAT_ID":8513,"ELEMENT_SET_NO":999,"REV_AT_EPOCH":19376,"BSTAR":0,"MEAN_MOTION_DOT":-1.38e-6,"MEAN_MOTION_DDOT":0},{"OBJECT_NAME":"TITAN 3C TRANSTAGE R/B","OBJECT_ID":"1975-118C","EPOCH":"2026-03-03T03:22:09.263136","MEAN_MOTION":1.00551208,"ECCENTRICITY":0.0010991,"INCLINATION":2.542,"RA_OF_ASC_NODE":260.9529,"ARG_OF_PERICENTER":212.6345,"MEAN_ANOMALY":146.7464,"EPHEMERIS_TYPE":0,"CLASSIFICATION_TYPE":"U","NORAD_CAT_ID":8516,"ELEMENT_SET_NO":999,"REV_AT_EPOCH":2471,"BSTAR":0,"MEAN_MOTION_DOT":6.4e-7,"MEAN_MOTION_DDOT":0},{"OBJECT_NAME":"CTS","OBJECT_ID":"1976-004A","EPOCH":"2026-03-04T04:27:38.801664","MEAN_MOTION":1.00202205,"ECCENTRICITY":0.0011554,"INCLINATION":4.2008,"RA_OF_ASC_NODE":273.5315,"ARG_OF_PERICENTER":291.622,"MEAN_ANOMALY":287.1264,"EPHEMERIS_TYPE":0,"CLASSIFICATION_TYPE":"U","NORAD_CAT_ID":8585,"ELEMENT_SET_NO":999,"REV_AT_EPOCH":12124,"BSTAR":0,"MEAN_MOTION_DOT":-1.48e-6,"MEAN_MOTION_DDOT":0},{"OBJECT_NAME":"INTELSAT 4A-F2","OBJECT_ID":"1976-010A","EPOCH":"2026-03-03T19:23:07.747584","MEAN_MOTION":0.99686673,"ECCENTRICITY":0.00068036,"INCLINATION":8.1242,"RA_OF_ASC_NODE":304.6124,"ARG_OF_PERICENTER":315.3422,"MEAN_ANOMALY":229.5085,"EPHEMERIS_TYPE":0,"CLASSIFICATION_TYPE":"U","NORAD_CAT_ID":8620,"ELEMENT_SET_NO":999,"REV_AT_EPOCH":61956,"BSTAR":0,"MEAN_MOTION_DOT":9.3e-7,"MEAN_MOTION_DDOT":0},{"OBJECT_NAME":"LES-8","OBJECT_ID":"1976-023A","EPOCH":"2026-03-03T22:08:35.212128","MEAN_MOTION":1.00269848,"ECCENTRICITY":0.0032081,"INCLINATION":22.2036,"RA_OF_ASC_NODE":38.3703,"ARG_OF_PERICENTER":156.8745,"MEAN_ANOMALY":195.2085,"EPHEMERIS_TYPE":0,"CLASSIFICATION_TYPE":"U","NORAD_CAT_ID":8746,"ELEMENT_SET_NO":999,"REV_AT_EPOCH":12862,"BSTAR":0,"MEAN_MOTION_DOT":-1.23e-6,"MEAN_MOTION_DDOT":0},{"OBJECT_NAME":"LES-9","OBJECT_ID":"1976-023B","EPOCH":"2026-03-03T10:09:48.776544","MEAN_MOTION":1.00276001,"ECCENTRICITY":0.00239127,"INCLINATION":22.1642,"RA_OF_ASC_NODE":38.3886,"ARG_OF_PERICENTER":180.8526,"MEAN_ANOMALY":350.9954,"EPHEMERIS_TYPE":0,"CLASSIFICATION_TYPE":"U","NORAD_CAT_ID":8747,"ELEMENT_SET_NO":999,"REV_AT_EPOCH":12861,"BSTAR":0,"MEAN_MOTION_DOT":-1.25e-6,"MEAN_MOTION_DDOT":0},{"OBJECT_NAME":"COMSTAR 1","OBJECT_ID":"1976-042A","EPOCH":"2026-03-04T00:13:23.247840","MEAN_MOTION":0.99829745,"ECCENTRICITY":0.0005832,"INCLINATION":8.1922,"RA_OF_ASC_NODE":305.3612,"ARG_OF_PERICENTER":356.2087,"MEAN_ANOMALY":198.2127,"EPHEMERIS_TYPE":0,"CLASSIFICATION_TYPE":"U","NORAD_CAT_ID":8838,"ELEMENT_SET_NO":999,"REV_AT_EPOCH":11952,"BSTAR":0,"MEAN_MOTION_DOT":-2.58e-6,"MEAN_MOTION_DDOT":0},{"OBJECT_NAME":"TITAN 3C TRANSTAGE R/B","OBJECT_ID":"1976-059C","EPOCH":"2026-03-03T05:46:38.570016","MEAN_MOTION":1.00540972,"ECCENTRICITY":0.00079681,"INCLINATION":3.002,"RA_OF_ASC_NODE":263.6884,"ARG_OF_PERICENTER":274.4259,"MEAN_ANOMALY":85.0297,"EPHEMERIS_TYPE":0,"CLASSIFICATION_TYPE":"U","NORAD_CAT_ID":8918,"ELEMENT_SET_NO":999,"REV_AT_EPOCH":2438,"BSTAR":0,"MEAN_MOTION_DOT":1.12e-6,"MEAN_MOTION_DDOT":0},{"OBJECT_NAME":"PALAPA 1","OBJECT_ID":"1976-066A","EPOCH":"2026-03-03T16:41:38.720256","MEAN_MOTION":1.00092015,"ECCENTRICITY":0.00026489,"INCLINATION":8.1132,"RA_OF_ASC_NODE":305.736,"ARG_OF_PERICENTER":268.4511,"MEAN_ANOMALY":318.1783,"EPHEMERIS_TYPE":0,"CLASSIFICATION_TYPE":"U","NORAD_CAT_ID":9009,"ELEMENT_SET_NO":999,"REV_AT_EPOCH":12688,"BSTAR":0,"MEAN_MOTION_DOT":-3.8e-6,"MEAN_MOTION_DDOT":0},{"OBJECT_NAME":"COMSTAR 2","OBJECT_ID":"1976-073A","EPOCH":"2026-03-04T02:27:08.993952","MEAN_MOTION":0.99965464,"ECCENTRICITY":0.0001752,"INCLINATION":8.1408,"RA_OF_ASC_NODE":305.8419,"ARG_OF_PERICENTER":7.0969,"MEAN_ANOMALY":328.8286,"EPHEMERIS_TYPE":0,"CLASSIFICATION_TYPE":"U","NORAD_CAT_ID":9047,"ELEMENT_SET_NO":999,"REV_AT_EPOCH":4615,"BSTAR":0,"MEAN_MOTION_DOT":-1.2e-6,"MEAN_MOTION_DDOT":0},{"OBJECT_NAME":"RADUGA 2","OBJECT_ID":"1976-092A","EPOCH":"2026-03-04T02:21:24.543936","MEAN_MOTION":1.00266621,"ECCENTRICITY":0.002983,"INCLINATION":3.7484,"RA_OF_ASC_NODE":271.1948,"ARG_OF_PERICENTER":37.0158,"MEAN_ANOMALY":312.6531,"EPHEMERIS_TYPE":0,"CLASSIFICATION_TYPE":"U","NORAD_CAT_ID":9416,"ELEMENT_SET_NO":999,"REV_AT_EPOCH":12828,"BSTAR":0,"MEAN_MOTION_DOT":4.0e-8,"MEAN_MOTION_DDOT":0},{"OBJECT_NAME":"KIKU-2 (ETS-II)","OBJECT_ID":"1977-014A","EPOCH":"2026-03-03T18:24:28.369728","MEAN_MOTION":1.00017901,"ECCENTRICITY":0.00014917,"INCLINATION":5.5384,"RA_OF_ASC_NODE":284.3156,"ARG_OF_PERICENTER":45.9664,"MEAN_ANOMALY":298.5435,"EPHEMERIS_TYPE":0,"CLASSIFICATION_TYPE":"U","NORAD_CAT_ID":9852,"ELEMENT_SET_NO":999,"REV_AT_EPOCH":12616,"BSTAR":0,"MEAN_MOTION_DOT":5.9e-7,"MEAN_MOTION_DDOT":0},{"OBJECT_NAME":"TITAN 3C TRANSTAGE R/B","OBJECT_ID":"1977-007C","EPOCH":"2026-03-03T16:25:59.517696","MEAN_MOTION":1.00303171,"ECCENTRICITY":0.0017372,"INCLINATION":3.6655,"RA_OF_ASC_NODE":269.6971,"ARG_OF_PERICENTER":44.2925,"MEAN_ANOMALY":315.4976,"EPHEMERIS_TYPE":0,"CLASSIFICATION_TYPE":"U","NORAD_CAT_ID":9855,"ELEMENT_SET_NO":999,"REV_AT_EPOCH":2430,"BSTAR":0,"MEAN_MOTION_DOT":8.2e-7,"MEAN_MOTION_DDOT":0},{"OBJECT_NAME":"PALAPA 2","OBJECT_ID":"1977-018A","EPOCH":"2026-03-03T15:56:02.834880","MEAN_MOTION":1.00029465,"ECCENTRICITY":0.0002984,"INCLINATION":8.8689,"RA_OF_ASC_NODE":310.9842,"ARG_OF_PERICENTER":87.3567,"MEAN_ANOMALY":99.1186,"EPHEMERIS_TYPE":0,"CLASSIFICATION_TYPE":"U","NORAD_CAT_ID":9862,"ELEMENT_SET_NO":999,"REV_AT_EPOCH":14205,"BSTAR":0,"MEAN_MOTION_DOT":-2.61e-6,"MEAN_MOTION_DDOT":0},{"OBJECT_NAME":"RADUGA 3","OBJECT_ID":"1977-071A","EPOCH":"2026-03-04T02:14:55.165920","MEAN_MOTION":1.00312664,"ECCENTRICITY":0.000867,"INCLINATION":4.3872,"RA_OF_ASC_NODE":274.9309,"ARG_OF_PERICENTER":305.4757,"MEAN_ANOMALY":15.7149,"EPHEMERIS_TYPE":0,"CLASSIFICATION_TYPE":"U","NORAD_CAT_ID":10159,"ELEMENT_SET_NO":999,"REV_AT_EPOCH":17598,"BSTAR":0,"MEAN_MOTION_DOT":1.3e-6,"MEAN_MOTION_DDOT":0},{"OBJECT_NAME":"SIRIO","OBJECT_ID":"1977-080A","EPOCH":"2026-03-04T02:25:01.697376","MEAN_MOTION":1.00271169,"ECCENTRICITY":0.0005453,"INCLINATION":7.4581,"RA_OF_ASC_NODE":299.9429,"ARG_OF_PERICENTER":149.2891,"MEAN_ANOMALY":184.6132,"EPHEMERIS_TYPE":0,"CLASSIFICATION_TYPE":"U","NORAD_CAT_ID":10294,"ELEMENT_SET_NO":999,"REV_AT_EPOCH":11686,"BSTAR":0,"MEAN_MOTION_DOT":-1.16e-6,"MEAN_MOTION_DDOT":0}]
